0 FENGYUN 1C DEB
1 37458U 99025EJC 13294.87708920  .00035363  00000-0  16356-2 0  1267
2 37458 098.7321 167.8962 0127298 070.0753 274.6346 15.13044250226792
0 FENGYUN 1C DEB
1 37458U 99025EJC 13294.89156545  .00056879  00000-0  26105-2 0  1278
2 37458 098.7312 167.9067 0127361 069.6283 353.8800 15.13178446226792
